BEIDOU 3 (C01)          
1 36287U 10001A   22220.88139685 -.00000288  00000+0  00000+0 0  9991
2 36287   1.9696  49.7008 0003535  38.9514 326.3684  1.00267189 46043
BEIDOU 5 (C06)          
1 36828U 10036A   22220.82549330 -.00000124  00000+0  00000+0 0  9995
2 36828  54.2008 175.7489 0030634 190.3754 355.8069  1.00283966 44104
BEIDOU 6 (C04)          
1 37210U 10057A   22220.87062978 -.00000118  00000+0  00000+0 0  9990
2 37210   0.9419  53.3013 0005603 127.1601 250.2841  1.00273382 43167
BEIDOU 7 (C07)          
1 37256U 10068A   22220.17253927 -.00000181  00000+0  00000+0 0  9991
2 37256  50.1201 289.0298 0023565 199.9173 356.5841  1.00291149 42669
BEIDOU 8 (C08)          
1 37384U 11013A   22220.48313267 -.00000161  00000+0  00000+0 0  9990
2 37384  60.3674  53.7422 0022822 177.2841   6.2558  1.00293612 41546
BEIDOU 9 (C09)          
1 37763U 11038A   22220.41126010 -.00000070  00000+0  00000+0 0  9998
2 37763  54.4826 178.2486 0099031 228.3740 153.9809  1.00270210 40520
BEIDOU 10 (C10)         
1 37948U 11073A   22219.03384918 -.00000141  00000+0  00000+0 0  9990
2 37948  50.2374 288.6875 0085404 218.4179 276.2696  1.00283093 39265
BEIDOU 11 (C05)         
1 38091U 12008A   22220.91368661  .00000050  00000+0  00000+0 0  9993
2 38091   1.6762  68.9091 0013661 343.5610 292.5039  1.00272959 38351
BEIDOU 12 (C11)         
1 38250U 12018A   22220.78433150 -.00000092  00000+0  00000+0 0  9999
2 38250  56.6803 351.8326 0021259 249.3768 126.8416  1.86234503 70067
BEIDOU 13 (C12)         
1 38251U 12018B   22220.77408730 -.00000092  00000+0  00000+0 0  9995
2 38251  56.5966 351.1535 0012083 248.8542 164.6829  1.86234273 70063
BEIDOU 15 (C14)         
1 38775U 12050B   22220.70956966 -.00000030  00000+0  00000+0 0  9996
2 38775  55.4291 109.9266 0013774 328.8902 237.4576  1.86231482 67434
BEIDOU 16 (C02)         
1 38953U 12059A   22220.90743722 -.00000184  00000+0  00000+0 0  9999
2 38953   2.1146  84.1764 0010082 307.2086 336.7655  1.00272098 35788
BEIDOU 17 (C31)         
1 40549U 15019A   22220.17847444 -.00000183  00000+0  00000+0 0  9996
2 40549  51.7982 312.1575 0037869 195.0602 328.6490  1.00286528 26952
BEIDOU 18 (C57)         
1 40748U 15037A   22220.26830494 -.00000091  00000+0  00000+0 0  9992
2 40748  55.8484 350.0054 0003132  61.6401 282.1516  1.86233549 47875
BEIDOU 19 (C58)         
1 40749U 15037B   22220.57646781 -.00000092  00000+0  00000+0 0  9992
2 40749  55.8512 349.9851 0002243 343.9075 340.7870  1.86232286 47876
BEIDOU 20 (C18)         
1 40938U 15053A   22220.61438233 -.00000098  00000+0  00000+0 0  9992
2 40938  51.4186 275.2746 0046029 199.0448 160.2395  1.00280678 25229
BEIDOU IGSO-6 (C13)     
1 41434U 16021A   22220.31194079 -.00000142  00000+0  00000+0 0  9994
2 41434  58.1745  52.2967 0044045 215.5609 257.3806  1.00273123 23357
BEIDOU-2 G7 (C03)       
1 41586U 16037A   22220.51716243 -.00000358  00000+0  00000+0 0  9993
2 41586   1.4852  66.8755 0008204   3.4069 183.2413  1.00263066 22661
BEIDOU-3 M1 (C19)       
1 43001U 17069A   22220.50842962 -.00000030  00000+0  00000+0 0  9997
2 43001  55.5814 109.9410 0009948 298.0142 289.7982  1.86231892 32367
BEIDOU-3 M2 (C20)       
1 43002U 17069B   22220.46299848 -.00000030  00000+0  00000+0 0  9992
2 43002  55.5806 109.9780 0008320 322.0281 278.2722  1.86231438 32354
BEIDOU-3 M3 (C27)       
1 43107U 18003A   22220.66386132 -.00000093  00000+0  00000+0 0  9991
2 43107  55.2994 350.8861 0005016  69.2117 111.9606  1.86232613 31123
BEIDOU-3 M4 (C28)       
1 43108U 18003B   22220.86507840 -.00000094  00000+0  00000+0 0  9996
2 43108  55.2928 350.8678 0002443 228.4600 131.2143  1.86231013 31128
BEIDOU-3 M5 (C21)       
1 43207U 18018A   22220.23648328 -.00000030  00000+0  00000+0 0  9990
2 43207  55.5402 110.0619 0006011 348.9749  11.0625  1.86231761 30507
BEIDOU-3 M6 (C22)       
1 43208U 18018B   22220.30315191 -.00000030  00000+0  00000+0 0  9998
2 43208  55.5400 110.0648 0007806 311.7542  48.2335  1.86231677 30506
BEIDOU-3 M7 (C29)       
1 43245U 18029A   22220.72833516 -.00000094  00000+0  00000+0 0  9993
2 43245  55.2106 348.6490 0001039 120.6349  14.2262  1.86232783 29661
BEIDOU-3 M8 (C30)       
1 43246U 18029B   22220.49037346 -.00000093  00000+0  10000-3 0  9999
2 43246  55.2078 348.6866 0003330  14.3361   7.5572  1.86233013 29651
BEIDOU IGSO-7 (C16)     
1 43539U 18057A   22220.80257762 -.00000129  00000+0  00000+0 0  9991
2 43539  55.0916 175.2677 0052788 229.1705 313.8010  1.00294842 15038
BEIDOU-3 M9 (C23)       
1 43581U 18062A   22220.67441256  .00000098  00000+0  00000+0 0  9996
2 43581  54.2631 230.2965 0005896 270.6774  85.7629  1.86231993 27392
BEIDOU-3 M10 (C24)      
1 43582U 18062B   22220.78193337  .00000096  00000+0  00000+0 0  9991
2 43582  54.2633 230.2821 0004812 335.9928 184.3625  1.86232376 27409
BEIDOU-3 M11 (C25)      
1 43602U 18067A   22219.47718045  .00000109  00000+0  00000+0 0  9997
2 43602  54.3460 228.9464 0006554   0.0971  46.7968  1.86231696 26876
BEIDOU-3 M12 (C26)      
1 43603U 18067B   22219.53633635  .00000108  00000+0  00000+0 0  9995
2 43603  54.3431 228.9110 0004020 340.7669  16.1537  1.86231673 26886
BEIDOU-3 M13 (C32)      
1 43622U 18072A   22220.63499353 -.00000030  00000+0  00000+0 0  9997
2 43622  55.5073 109.6025 0006373 296.7476 105.9196  1.86231970 26429
BEIDOU-3 M14 (C33)      
1 43623U 18072B   22220.08926424 -.00000031  00000+0  00000+0 0  9992
2 43623  55.5093 109.6122 0004686 327.4591 159.5604  1.86232040 26412
BEIDOU-3 M15 (C34)      
1 43647U 18078A   22220.59459713 -.00000093  00000+0  10000-3 0  9995
2 43647  55.1055 348.8092 0005645  14.7434 346.6755  1.86232826 25937
BEIDOU-3 M16 (C35)      
1 43648U 18078B   22220.76931301 -.00000094  00000+0  00000+0 0  9999
2 43648  55.1019 348.8075 0003948  34.9093 351.3417  1.86232399 25953
BEIDOU-3 G1 (C59)       
1 43683U 18085A   22220.88174406 -.00000284  00000+0  00000+0 0  9995
2 43683   0.9436 157.6564 0004437   4.0349 253.0844  1.00275331 13934
BEIDOU-3 M17 (C36)      
1 43706U 18093A   22220.34418940  .00000102  00000+0  00000+0 0  9993
2 43706  54.3463 230.1965 0011297 273.4398  86.4738  1.86231747 25304
BEIDOU-3 M18 (C37)      
1 43707U 18093B   22220.74140058  .00000097  00000+0  00000+0 0  9993
2 43707  54.3456 230.1738 0009300 294.1117  63.3786  1.86232288 25292
BEIDOU-3 IGSO-1 (C38)   
1 44204U 19023A   22220.43660505 -.00000201  00000+0  00000+0 0  9998
2 44204  56.6307  52.4163 0022082 188.7382 350.8038  1.00294446 12230
BEIDOU-2 G8             
1 44231U 19027A   22220.91187730 -.00000255  00000+0  00000+0 0  9998
2 44231   0.9825  78.0831 0005473 109.2073 242.8394  1.00267845 11959
BEIDOU-3 IGSO-2 (C39)   
1 44337U 19035A   22220.79129039 -.00000141  00000+0  00000+0 0  9992
2 44337  55.1286 171.2574 0025930 194.4493 354.9605  1.00288920 11576
BEIDOU-3 M23 (C45)      
1 44542U 19061A   22220.29657887  .00000103  00000+0  00000+0 0  9998
2 44542  54.5725 230.3504 0008668 324.7630  46.1466  1.86231314 19555
BEIDOU-3 M24 (C46)      
1 44543U 19061B   22220.54729470  .00000100  00000+0  00000+0 0  9992
2 44543  54.5701 230.3117 0006240 306.4884 143.8933  1.86231821 19559
BEIDOU-3 IGSO-3         
1 44709U 19073A   22219.79925259 -.00000181  00000+0  10000-3 0  9992
2 44709  57.1826 295.8534 0027461 178.6963 247.7682  1.00293326 10318
BEIDOU-3 M21            
1 44793U 19078A   22219.86052369 -.00000090  00000+0  10000-3 0  9990
2 44793  54.9546 348.8484 0005814  23.2540 159.8144  1.86232426 18404
BEIDOU-3 M22            
1 44794U 19078B   22219.15682470 -.00000087  00000+0  00000+0 0  9996
2 44794  54.9286 348.8634 0003642  23.6604 319.3652  1.86232901 18387
BEIDOU-3 M19            
1 44864U 19090A   22220.29268888 -.00000030  00000+0  00000+0 0  9996
2 44864  55.4420 109.8217 0016535 273.9564 305.0423  1.86232080 17995
BEIDOU-3 M20            
1 44865U 19090B   22219.90306383 -.00000031  00000+0  00000+0 0  9997
2 44865  55.4443 109.8668 0014862 288.6018 119.0290  1.86232044 17961
BEIDOU-3 G2             
1 45344U 20017A   22220.79702017 -.00000143  00000+0  00000+0 0  9998
2 45344   2.0360 354.6221 0005263 130.7150 198.9136  1.00270474  9134
BEIDOU-3 G3             
1 45807U 20040A   22220.90516288 -.00000358  00000+0  00000+0 0  9992
2 45807   1.3261 304.6918 0006590 331.9065 117.1996  1.00273490  7958
